STARLINK-37097          
1 68238U 26054G   26085.25002315  .00018034  00000+0  94755-4 0  9992
2 68238  53.1589 229.6272 0000835 107.5770 246.1427 15.80863615  2576
STARLINK-37096          
1 68239U 26054H   26085.25002315 -.00659494  00000+0 -35259-2 0  9998
2 68239  53.1589 229.6101 0001084  90.6168 271.4090 15.81319778  2572
STARLINK-37092          
1 68240U 26054J   26085.25002315 -.00201102  00000+0 -10343-2 0  9996
2 68240  53.1591 229.6186 0001180  51.1732 306.7473 15.80974182  2578
STARLINK-37094          
1 68241U 26054K   26085.25002315 -.01177812  00000+0 -64251-2 0  9995
2 68241  53.1589 229.6019 0000722  99.0050 267.0241 15.81755501  2560
STARLINK-36356          
1 68242U 26054L   26085.25002315 -.01500788  00000+0 -81413-2 0  9997
2 68242  53.1591 229.5934 0000697  84.2342 285.8061 15.82091511  2619
STARLINK-36345          
1 68243U 26054M   26085.25002315 -.01962284  00000+0 -10571-1 0  9997
2 68243  53.1592 229.5853 0000895  65.9680 307.9572 15.82560286  2615
STARLINK-36310          
1 68244U 26054N   26085.25002315 -.01942294  00000+0 -10427-1 0  9997
2 68244  53.1592 229.5677 0000646  75.4798 306.9166 15.82602077  2613
STARLINK-36247          
1 68245U 26054P   26085.25002315 -.01619754  00000+0 -88378-2 0  9991
2 68245  53.1589 229.5762 0000361 113.2144 265.2896 15.82202237  2616
STARLINK-37043          
1 68246U 26054Q   26085.25002315 -.02033181  00000+0 -10823-1 0  9996
2 68246  53.1589 229.5600 0000507 103.0635 283.1588 15.82935411  2571
STARLINK-37044          
1 68247U 26054R   26085.25002315 -.02071635  00000+0 -10935-1 0  9997
2 68247  53.1590 229.5519 0000600  78.1754 311.9310 15.83175894  2576
STARLINK-36997          
1 68248U 26054S   26085.25002315 -.01967352  00000+0 -10211-1 0  9994
2 68248  53.1590 229.5439 0000753  83.2459 310.7224 15.83350367  2577
STARLINK-37141          
1 68249U 26054T   26085.25002315 -.02053847  00000+0 -10572-1 0  9991
2 68249  53.1587 229.5365 0000743  78.5093 319.1366 15.83666474  2650
STARLINK-37087          
1 68250U 26054U   26085.25002315 -.02050885  00000+0 -10446-1 0  9992
2 68250  53.1589 229.5288 0000734  71.9081 329.5101 15.83881665  2576
STARLINK-36274          
1 68251U 26054V   26085.25002315 -.02047043  00000+0 -10316-1 0  9991
2 68251  53.1589 229.5211 0000899  82.2126 322.9514 15.84093385  2615
STARLINK-37085          
1 68252U 26054W   26085.25002315 -.02034755  00000+0 -10127-1 0  9998
2 68252  53.1589 229.5132 0000812  66.5928 342.1857 15.84330729  2573
STARLINK-37086          
1 68253U 26054X   26085.25002315 -.02017719  00000+0 -99098-2 0  9995
2 68253  53.1588 229.5066 0000589  86.4285 325.8682 15.84578931  2570
