[{"OBJECT_NAME":"STARLINK-37097","OBJECT_ID":"2026-054G","EPOCH":"2026-03-26T06:00:02.000160","MEAN_MOTION":15.80863615,"ECCENTRICITY":8.356e-5,"INCLINATION":53.1589,"RA_OF_ASC_NODE":229.6272,"ARG_OF_PERICENTER":107.577,"MEAN_ANOMALY":246.1427,"EPHEMERIS_TYPE":0,"CLASSIFICATION_TYPE":"U","NORAD_CAT_ID":68238,"ELEMENT_SET_NO":999,"REV_AT_EPOCH":257,"BSTAR":9.4755445e-5,"MEAN_MOTION_DOT":0.00018034,"MEAN_MOTION_DDOT":0},{"OBJECT_NAME":"STARLINK-37096","OBJECT_ID":"2026-054H","EPOCH":"2026-03-26T06:00:02.000160","MEAN_MOTION":15.81319778,"ECCENTRICITY":0.00010842,"INCLINATION":53.1589,"RA_OF_ASC_NODE":229.6101,"ARG_OF_PERICENTER":90.6168,"MEAN_ANOMALY":271.409,"EPHEMERIS_TYPE":0,"CLASSIFICATION_TYPE":"U","NORAD_CAT_ID":68239,"ELEMENT_SET_NO":999,"REV_AT_EPOCH":257,"BSTAR":-0.0035258903,"MEAN_MOTION_DOT":-0.00659494,"MEAN_MOTION_DDOT":0},{"OBJECT_NAME":"STARLINK-37092","OBJECT_ID":"2026-054J","EPOCH":"2026-03-26T06:00:02.000160","MEAN_MOTION":15.80974182,"ECCENTRICITY":0.00011809,"INCLINATION":53.1591,"RA_OF_ASC_NODE":229.6186,"ARG_OF_PERICENTER":51.1732,"MEAN_ANOMALY":306.7473,"EPHEMERIS_TYPE":0,"CLASSIFICATION_TYPE":"U","NORAD_CAT_ID":68240,"ELEMENT_SET_NO":999,"REV_AT_EPOCH":257,"BSTAR":-0.0010343086,"MEAN_MOTION_DOT":-0.00201102,"MEAN_MOTION_DDOT":0},{"OBJECT_NAME":"STARLINK-37094","OBJECT_ID":"2026-054K","EPOCH":"2026-03-26T06:00:02.000160","MEAN_MOTION":15.81755501,"ECCENTRICITY":7.228e-5,"INCLINATION":53.1589,"RA_OF_ASC_NODE":229.6019,"ARG_OF_PERICENTER":99.005,"MEAN_ANOMALY":267.0241,"EPHEMERIS_TYPE":0,"CLASSIFICATION_TYPE":"U","NORAD_CAT_ID":68241,"ELEMENT_SET_NO":999,"REV_AT_EPOCH":256,"BSTAR":-0.006425084,"MEAN_MOTION_DOT":-0.01177812,"MEAN_MOTION_DDOT":0},{"OBJECT_NAME":"STARLINK-36356","OBJECT_ID":"2026-054L","EPOCH":"2026-03-26T06:00:02.000160","MEAN_MOTION":15.82091511,"ECCENTRICITY":6.975e-5,"INCLINATION":53.1591,"RA_OF_ASC_NODE":229.5934,"ARG_OF_PERICENTER":84.2342,"MEAN_ANOMALY":285.8061,"EPHEMERIS_TYPE":0,"CLASSIFICATION_TYPE":"U","NORAD_CAT_ID":68242,"ELEMENT_SET_NO":999,"REV_AT_EPOCH":261,"BSTAR":-0.0081413151,"MEAN_MOTION_DOT":-0.01500788,"MEAN_MOTION_DDOT":0},{"OBJECT_NAME":"STARLINK-36345","OBJECT_ID":"2026-054M","EPOCH":"2026-03-26T06:00:02.000160","MEAN_MOTION":15.82560286,"ECCENTRICITY":8.958e-5,"INCLINATION":53.1592,"RA_OF_ASC_NODE":229.5853,"ARG_OF_PERICENTER":65.968,"MEAN_ANOMALY":307.9572,"EPHEMERIS_TYPE":0,"CLASSIFICATION_TYPE":"U","NORAD_CAT_ID":68243,"ELEMENT_SET_NO":999,"REV_AT_EPOCH":261,"BSTAR":-0.01057069,"MEAN_MOTION_DOT":-0.01962284,"MEAN_MOTION_DDOT":0},{"OBJECT_NAME":"STARLINK-36310","OBJECT_ID":"2026-054N","EPOCH":"2026-03-26T06:00:02.000160","MEAN_MOTION":15.82602077,"ECCENTRICITY":6.462e-5,"INCLINATION":53.1592,"RA_OF_ASC_NODE":229.5677,"ARG_OF_PERICENTER":75.4798,"MEAN_ANOMALY":306.9166,"EPHEMERIS_TYPE":0,"CLASSIFICATION_TYPE":"U","NORAD_CAT_ID":68244,"ELEMENT_SET_NO":999,"REV_AT_EPOCH":261,"BSTAR":-0.010427113,"MEAN_MOTION_DOT":-0.01942294,"MEAN_MOTION_DDOT":0},{"OBJECT_NAME":"STARLINK-36247","OBJECT_ID":"2026-054P","EPOCH":"2026-03-26T06:00:02.000160","MEAN_MOTION":15.82202237,"ECCENTRICITY":3.617e-5,"INCLINATION":53.1589,"RA_OF_ASC_NODE":229.5762,"ARG_OF_PERICENTER":113.2144,"MEAN_ANOMALY":265.2896,"EPHEMERIS_TYPE":0,"CLASSIFICATION_TYPE":"U","NORAD_CAT_ID":68245,"ELEMENT_SET_NO":999,"REV_AT_EPOCH":261,"BSTAR":-0.0088377872,"MEAN_MOTION_DOT":-0.01619754,"MEAN_MOTION_DDOT":0},{"OBJECT_NAME":"STARLINK-37043","OBJECT_ID":"2026-054Q","EPOCH":"2026-03-26T06:00:02.000160","MEAN_MOTION":15.82935411,"ECCENTRICITY":5.076e-5,"INCLINATION":53.1589,"RA_OF_ASC_NODE":229.56,"ARG_OF_PERICENTER":103.0635,"MEAN_ANOMALY":283.1588,"EPHEMERIS_TYPE":0,"CLASSIFICATION_TYPE":"U","NORAD_CAT_ID":68246,"ELEMENT_SET_NO":999,"REV_AT_EPOCH":257,"BSTAR":-0.010822568,"MEAN_MOTION_DOT":-0.02033181,"MEAN_MOTION_DDOT":0},{"OBJECT_NAME":"STARLINK-37044","OBJECT_ID":"2026-054R","EPOCH":"2026-03-26T06:00:02.000160","MEAN_MOTION":15.83175894,"ECCENTRICITY":6.003e-5,"INCLINATION":53.159,"RA_OF_ASC_NODE":229.5519,"ARG_OF_PERICENTER":78.1754,"MEAN_ANOMALY":311.931,"EPHEMERIS_TYPE":0,"CLASSIFICATION_TYPE":"U","NORAD_CAT_ID":68247,"ELEMENT_SET_NO":999,"REV_AT_EPOCH":257,"BSTAR":-0.010934825,"MEAN_MOTION_DOT":-0.02071635,"MEAN_MOTION_DDOT":0},{"OBJECT_NAME":"STARLINK-36997","OBJECT_ID":"2026-054S","EPOCH":"2026-03-26T06:00:02.000160","MEAN_MOTION":15.83350367,"ECCENTRICITY":7.534e-5,"INCLINATION":53.159,"RA_OF_ASC_NODE":229.5439,"ARG_OF_PERICENTER":83.2459,"MEAN_ANOMALY":310.7224,"EPHEMERIS_TYPE":0,"CLASSIFICATION_TYPE":"U","NORAD_CAT_ID":68248,"ELEMENT_SET_NO":999,"REV_AT_EPOCH":257,"BSTAR":-0.010210572,"MEAN_MOTION_DOT":-0.01967352,"MEAN_MOTION_DDOT":0},{"OBJECT_NAME":"STARLINK-37141","OBJECT_ID":"2026-054T","EPOCH":"2026-03-26T06:00:02.000160","MEAN_MOTION":15.83666474,"ECCENTRICITY":7.431e-5,"INCLINATION":53.1587,"RA_OF_ASC_NODE":229.5365,"ARG_OF_PERICENTER":78.5093,"MEAN_ANOMALY":319.1366,"EPHEMERIS_TYPE":0,"CLASSIFICATION_TYPE":"U","NORAD_CAT_ID":68249,"ELEMENT_SET_NO":999,"REV_AT_EPOCH":265,"BSTAR":-0.010572163,"MEAN_MOTION_DOT":-0.02053847,"MEAN_MOTION_DDOT":0},{"OBJECT_NAME":"STARLINK-37087","OBJECT_ID":"2026-054U","EPOCH":"2026-03-26T06:00:02.000160","MEAN_MOTION":15.83881665,"ECCENTRICITY":7.349e-5,"INCLINATION":53.1589,"RA_OF_ASC_NODE":229.5288,"ARG_OF_PERICENTER":71.9081,"MEAN_ANOMALY":329.5101,"EPHEMERIS_TYPE":0,"CLASSIFICATION_TYPE":"U","NORAD_CAT_ID":68250,"ELEMENT_SET_NO":999,"REV_AT_EPOCH":257,"BSTAR":-0.010445516,"MEAN_MOTION_DOT":-0.02050885,"MEAN_MOTION_DDOT":0},{"OBJECT_NAME":"STARLINK-36274","OBJECT_ID":"2026-054V","EPOCH":"2026-03-26T06:00:02.000160","MEAN_MOTION":15.84093385,"ECCENTRICITY":8.999e-5,"INCLINATION":53.1589,"RA_OF_ASC_NODE":229.5211,"ARG_OF_PERICENTER":82.2126,"MEAN_ANOMALY":322.9514,"EPHEMERIS_TYPE":0,"CLASSIFICATION_TYPE":"U","NORAD_CAT_ID":68251,"ELEMENT_SET_NO":999,"REV_AT_EPOCH":261,"BSTAR":-0.010315588,"MEAN_MOTION_DOT":-0.02047043,"MEAN_MOTION_DDOT":0},{"OBJECT_NAME":"STARLINK-37085","OBJECT_ID":"2026-054W","EPOCH":"2026-03-26T06:00:02.000160","MEAN_MOTION":15.84330729,"ECCENTRICITY":8.121e-5,"INCLINATION":53.1589,"RA_OF_ASC_NODE":229.5132,"ARG_OF_PERICENTER":66.5928,"MEAN_ANOMALY":342.1857,"EPHEMERIS_TYPE":0,"CLASSIFICATION_TYPE":"U","NORAD_CAT_ID":68252,"ELEMENT_SET_NO":999,"REV_AT_EPOCH":257,"BSTAR":-0.010127012,"MEAN_MOTION_DOT":-0.02034755,"MEAN_MOTION_DDOT":0},{"OBJECT_NAME":"STARLINK-37086","OBJECT_ID":"2026-054X","EPOCH":"2026-03-26T06:00:02.000160","MEAN_MOTION":15.84578931,"ECCENTRICITY":5.893e-5,"INCLINATION":53.1588,"RA_OF_ASC_NODE":229.5066,"ARG_OF_PERICENTER":86.4285,"MEAN_ANOMALY":325.8682,"EPHEMERIS_TYPE":0,"CLASSIFICATION_TYPE":"U","NORAD_CAT_ID":68253,"ELEMENT_SET_NO":999,"REV_AT_EPOCH":257,"BSTAR":-0.009909752,"MEAN_MOTION_DOT":-0.02017719,"MEAN_MOTION_DDOT":0}]
